STARLINK-31511          
1 59462U 24068H   26068.31561203 -.00000402  00000+0 -50759-5 0  9997
2 59462  43.0023  36.7900 0001374 254.7480 105.3220 15.27576819108463
FLOCK 4G-15             
1 62678U 25009BX  26068.71779869  .00012647  00000+0  47575-3 0  9991
2 62678  97.4054 151.1927 0003699 316.8208  43.2740 15.27266411121358
